STARLINK-36279          
1 67193U 25304B   26002.37443032 -.00795987  00000+0 -91645-2 0  9999
2 67193  69.9995 349.1842 0002190 299.3875  60.7099 15.64248178  3764
STARLINK-36284          
1 67194U 25304C   26002.69404663 -.00262181  00000+0 -29480-2 0  9995
2 67194  69.9991 348.2921 0005573 255.9023 104.1550 15.63172817  3816
STARLINK-36291          
1 67195U 25304D   26002.75773815 -.00001588  00000+0 -15291-4 0  9990
2 67195  69.9985 348.1136 0005962 248.2259 111.8299 15.63011789  3821
STARLINK-36239          
1 67196U 25304E   26002.43534901  .00221783  00000+0  18405-2 0  9994
2 67196  69.9991 348.9945 0026281 282.5330  77.2925 15.68920327  3770
STARLINK-36283          
1 67197U 25304F   26002.69268015 -.00604375  00000+0 -71244-2 0  9997
2 67197  69.9990 348.2863 0004232 239.0487 121.0290 15.63037891  3812
STARLINK-36267          
1 67198U 25304G   26002.69269564 -.02025048  00000+0 -24648-1 0  9999
2 67198  69.9991 348.2868 0007558 296.3151  63.7265 15.63601796  3788
STARLINK-36268          
1 67199U 25304H   26002.75635469 -.00606662  00000+0 -72278-2 0  9996
2 67199  69.9963 348.1067 0003372 255.8391 104.2427 15.62782222  3823
STARLINK-36270          
1 67200U 25304J   26002.75601605 -.00636441  00000+0 -76194-2 0  9993
2 67200  69.9984 348.1065 0003495 256.4389 103.6414 15.62749899  3829
STARLINK-36262          
1 67201U 25304K   26002.81974070 -.00808537  00000+0 -10052-1 0  9997
2 67201  69.9991 347.9275 0004697 290.5149  69.5539 15.62311898  3839
STARLINK-36263          
1 67202U 25304L   26002.69131115 -.00423793  00000+0 -48642-2 0  9993
2 67202  69.9995 348.2825 0005831 208.8650 151.2220 15.63145803  3815
STARLINK-36224          
1 67203U 25304M   26002.81906184 -.00816899  00000+0 -10170-1 0  9991
2 67203  70.0007 347.9246 0003891 303.1734  56.9084 15.62312085  3830
STARLINK-36185          
1 67204U 25304N   26002.81870958 -.00353128  00000+0 -41222-2 0  9995
2 67204  69.9992 347.9219 0004462 271.7438  88.3242 15.62508360  3835
