CCSDS_OMM_VERS = 2.0
CREATION_DATE  = 
ORIGINATOR     = 

OBJECT_NAME    = STARLINK-36279
OBJECT_ID      = 2025-304B
CENTER_NAME    = EARTH
REF_FRAME      = TEME
TIME_SYSTEM    = UTC
MEAN_ELEMENT_THEORY = SGP/SGP4

EPOCH          = 2026-01-02T08:59:10.779648
MEAN_MOTION    = 15.64248178
ECCENTRICITY   = .000219
INCLINATION    = 69.9995
RA_OF_ASC_NODE = 349.1842
ARG_OF_PERICENTER = 299.3875
MEAN_ANOMALY   = 60.7099

EPHEMERIS_TYPE = 0
CLASSIFICATION_TYPE = U
NORAD_CAT_ID   = 67193
ELEMENT_SET_NO = 999
REV_AT_EPOCH   = 376
BSTAR          = -.91645E-2
MEAN_MOTION_DOT = -.795987E-2
MEAN_MOTION_DDOT = 0

CCSDS_OMM_VERS = 2.0
CREATION_DATE  = 
ORIGINATOR     = 

OBJECT_NAME    = STARLINK-36284
OBJECT_ID      = 2025-304C
CENTER_NAME    = EARTH
REF_FRAME      = TEME
TIME_SYSTEM    = UTC
MEAN_ELEMENT_THEORY = SGP/SGP4

EPOCH          = 2026-01-02T16:39:25.628832
MEAN_MOTION    = 15.63172817
ECCENTRICITY   = .0005573
INCLINATION    = 69.9991
RA_OF_ASC_NODE = 348.2921
ARG_OF_PERICENTER = 255.9023
MEAN_ANOMALY   = 104.1550

EPHEMERIS_TYPE = 0
CLASSIFICATION_TYPE = U
NORAD_CAT_ID   = 67194
ELEMENT_SET_NO = 999
REV_AT_EPOCH   = 381
BSTAR          = -.2948E-2
MEAN_MOTION_DOT = -.262181E-2
MEAN_MOTION_DDOT = 0

CCSDS_OMM_VERS = 2.0
CREATION_DATE  = 
ORIGINATOR     = 

OBJECT_NAME    = STARLINK-36291
OBJECT_ID      = 2025-304D
CENTER_NAME    = EARTH
REF_FRAME      = TEME
TIME_SYSTEM    = UTC
MEAN_ELEMENT_THEORY = SGP/SGP4

EPOCH          = 2026-01-02T18:11:08.576160
MEAN_MOTION    = 15.63011789
ECCENTRICITY   = .0005962
INCLINATION    = 69.9985
RA_OF_ASC_NODE = 348.1136
ARG_OF_PERICENTER = 248.2259
MEAN_ANOMALY   = 111.8299

EPHEMERIS_TYPE = 0
CLASSIFICATION_TYPE = U
NORAD_CAT_ID   = 67195
ELEMENT_SET_NO = 999
REV_AT_EPOCH   = 382
BSTAR          = -.15291E-4
MEAN_MOTION_DOT = -.1588E-4
MEAN_MOTION_DDOT = 0

CCSDS_OMM_VERS = 2.0
CREATION_DATE  = 
ORIGINATOR     = 

OBJECT_NAME    = STARLINK-36239
OBJECT_ID      = 2025-304E
CENTER_NAME    = EARTH
REF_FRAME      = TEME
TIME_SYSTEM    = UTC
MEAN_ELEMENT_THEORY = SGP/SGP4

EPOCH          = 2026-01-02T10:26:54.154464
MEAN_MOTION    = 15.68920327
ECCENTRICITY   = .00262813
INCLINATION    = 69.9991
RA_OF_ASC_NODE = 348.9945
ARG_OF_PERICENTER = 282.5330
MEAN_ANOMALY   = 77.2925

EPHEMERIS_TYPE = 0
CLASSIFICATION_TYPE = U
NORAD_CAT_ID   = 67196
ELEMENT_SET_NO = 999
REV_AT_EPOCH   = 377
BSTAR          = .18404684E-2
MEAN_MOTION_DOT = .221783E-2
MEAN_MOTION_DDOT = 0

CCSDS_OMM_VERS = 2.0
CREATION_DATE  = 
ORIGINATOR     = 

OBJECT_NAME    = STARLINK-36283
OBJECT_ID      = 2025-304F
CENTER_NAME    = EARTH
REF_FRAME      = TEME
TIME_SYSTEM    = UTC
MEAN_ELEMENT_THEORY = SGP/SGP4

EPOCH          = 2026-01-02T16:37:27.564960
MEAN_MOTION    = 15.63037891
ECCENTRICITY   = .0004232
INCLINATION    = 69.9990
RA_OF_ASC_NODE = 348.2863
ARG_OF_PERICENTER = 239.0487
MEAN_ANOMALY   = 121.0290

EPHEMERIS_TYPE = 0
CLASSIFICATION_TYPE = U
NORAD_CAT_ID   = 67197
ELEMENT_SET_NO = 999
REV_AT_EPOCH   = 381
BSTAR          = -.71244E-2
MEAN_MOTION_DOT = -.604375E-2
MEAN_MOTION_DDOT = 0

CCSDS_OMM_VERS = 2.0
CREATION_DATE  = 
ORIGINATOR     = 

OBJECT_NAME    = STARLINK-36267
OBJECT_ID      = 2025-304G
CENTER_NAME    = EARTH
REF_FRAME      = TEME
TIME_SYSTEM    = UTC
MEAN_ELEMENT_THEORY = SGP/SGP4

EPOCH          = 2026-01-02T16:37:28.903296
MEAN_MOTION    = 15.63601796
ECCENTRICITY   = .0007558
INCLINATION    = 69.9991
RA_OF_ASC_NODE = 348.2868
ARG_OF_PERICENTER = 296.3151
MEAN_ANOMALY   = 63.7265

EPHEMERIS_TYPE = 0
CLASSIFICATION_TYPE = U
NORAD_CAT_ID   = 67198
ELEMENT_SET_NO = 999
REV_AT_EPOCH   = 378
BSTAR          = -.24648E-1
MEAN_MOTION_DOT = -.2025048E-1
MEAN_MOTION_DDOT = 0

CCSDS_OMM_VERS = 2.0
CREATION_DATE  = 
ORIGINATOR     = 

OBJECT_NAME    = STARLINK-36268
OBJECT_ID      = 2025-304H
CENTER_NAME    = EARTH
REF_FRAME      = TEME
TIME_SYSTEM    = UTC
MEAN_ELEMENT_THEORY = SGP/SGP4

EPOCH          = 2026-01-02T18:09:09.045216
MEAN_MOTION    = 15.62782222
ECCENTRICITY   = .0003372
INCLINATION    = 69.9963
RA_OF_ASC_NODE = 348.1067
ARG_OF_PERICENTER = 255.8391
MEAN_ANOMALY   = 104.2427

EPHEMERIS_TYPE = 0
CLASSIFICATION_TYPE = U
NORAD_CAT_ID   = 67199
ELEMENT_SET_NO = 999
REV_AT_EPOCH   = 382
BSTAR          = -.72278E-2
MEAN_MOTION_DOT = -.606662E-2
MEAN_MOTION_DDOT = 0

CCSDS_OMM_VERS = 2.0
CREATION_DATE  = 
ORIGINATOR     = 

OBJECT_NAME    = STARLINK-36270
OBJECT_ID      = 2025-304J
CENTER_NAME    = EARTH
REF_FRAME      = TEME
TIME_SYSTEM    = UTC
MEAN_ELEMENT_THEORY = SGP/SGP4

EPOCH          = 2026-01-02T18:08:39.786720
MEAN_MOTION    = 15.62749899
ECCENTRICITY   = .0003495
INCLINATION    = 69.9984
RA_OF_ASC_NODE = 348.1065
ARG_OF_PERICENTER = 256.4389
MEAN_ANOMALY   = 103.6414

EPHEMERIS_TYPE = 0
CLASSIFICATION_TYPE = U
NORAD_CAT_ID   = 67200
ELEMENT_SET_NO = 999
REV_AT_EPOCH   = 382
BSTAR          = -.76194E-2
MEAN_MOTION_DOT = -.636441E-2
MEAN_MOTION_DDOT = 0

CCSDS_OMM_VERS = 2.0
CREATION_DATE  = 
ORIGINATOR     = 

OBJECT_NAME    = STARLINK-36262
OBJECT_ID      = 2025-304K
CENTER_NAME    = EARTH
REF_FRAME      = TEME
TIME_SYSTEM    = UTC
MEAN_ELEMENT_THEORY = SGP/SGP4

EPOCH          = 2026-01-02T19:40:25.596480
MEAN_MOTION    = 15.62311898
ECCENTRICITY   = .0004697
INCLINATION    = 69.9991
RA_OF_ASC_NODE = 347.9275
ARG_OF_PERICENTER = 290.5149
MEAN_ANOMALY   = 69.5539

EPHEMERIS_TYPE = 0
CLASSIFICATION_TYPE = U
NORAD_CAT_ID   = 67201
ELEMENT_SET_NO = 999
REV_AT_EPOCH   = 383
BSTAR          = -.10052E-1
MEAN_MOTION_DOT = -.808537E-2
MEAN_MOTION_DDOT = 0

CCSDS_OMM_VERS = 2.0
CREATION_DATE  = 
ORIGINATOR     = 

OBJECT_NAME    = STARLINK-36263
OBJECT_ID      = 2025-304L
CENTER_NAME    = EARTH
REF_FRAME      = TEME
TIME_SYSTEM    = UTC
MEAN_ELEMENT_THEORY = SGP/SGP4

EPOCH          = 2026-01-02T16:35:29.283360
MEAN_MOTION    = 15.63145803
ECCENTRICITY   = .0005831
INCLINATION    = 69.9995
RA_OF_ASC_NODE = 348.2825
ARG_OF_PERICENTER = 208.8650
MEAN_ANOMALY   = 151.2220

EPHEMERIS_TYPE = 0
CLASSIFICATION_TYPE = U
NORAD_CAT_ID   = 67202
ELEMENT_SET_NO = 999
REV_AT_EPOCH   = 381
BSTAR          = -.48642E-2
MEAN_MOTION_DOT = -.423793E-2
MEAN_MOTION_DDOT = 0

CCSDS_OMM_VERS = 2.0
CREATION_DATE  = 
ORIGINATOR     = 

OBJECT_NAME    = STARLINK-36224
OBJECT_ID      = 2025-304M
CENTER_NAME    = EARTH
REF_FRAME      = TEME
TIME_SYSTEM    = UTC
MEAN_ELEMENT_THEORY = SGP/SGP4

EPOCH          = 2026-01-02T19:39:26.942976
MEAN_MOTION    = 15.62312085
ECCENTRICITY   = .0003891
INCLINATION    = 70.0007
RA_OF_ASC_NODE = 347.9246
ARG_OF_PERICENTER = 303.1734
MEAN_ANOMALY   = 56.9084

EPHEMERIS_TYPE = 0
CLASSIFICATION_TYPE = U
NORAD_CAT_ID   = 67203
ELEMENT_SET_NO = 999
REV_AT_EPOCH   = 383
BSTAR          = -.1017E-1
MEAN_MOTION_DOT = -.816899E-2
MEAN_MOTION_DDOT = 0

CCSDS_OMM_VERS = 2.0
CREATION_DATE  = 
ORIGINATOR     = 

OBJECT_NAME    = STARLINK-36185
OBJECT_ID      = 2025-304N
CENTER_NAME    = EARTH
REF_FRAME      = TEME
TIME_SYSTEM    = UTC
MEAN_ELEMENT_THEORY = SGP/SGP4

EPOCH          = 2026-01-02T19:38:56.507712
MEAN_MOTION    = 15.62508360
ECCENTRICITY   = .0004462
INCLINATION    = 69.9992
RA_OF_ASC_NODE = 347.9219
ARG_OF_PERICENTER = 271.7438
MEAN_ANOMALY   = 88.3242

EPHEMERIS_TYPE = 0
CLASSIFICATION_TYPE = U
NORAD_CAT_ID   = 67204
ELEMENT_SET_NO = 999
REV_AT_EPOCH   = 383
BSTAR          = -.41222E-2
MEAN_MOTION_DOT = -.353128E-2
MEAN_MOTION_DDOT = 0

